#dP2021  1 14  0  0  0.00000000      96 __u+U ITR00 EXT  IAC
## 2140 345600.00000000   900.00000000 59228 0.0000000000000
+  111   C06C08C09C10C11C12C13C14C16C19C20C21C22C23C24C25C26
+        C27C28C29C30C32C33C34C35C36C37C43C44C45C46E01E02E03
+        E04E05E07E08E09E11E12E13E14E15E18E19E21E24E25E26E27
+        E30E31E33E36G01G02G03G04G05G06G07G08G09G10G11G12G13
+        G14G15G16G17G18G19G20G21G22G23G24G25G26G27G28G29G30
+        G31G32J01J02J03R01R02R03R04R05R07R08R09R11R12R13R14
+        R15R16R17R18R19R20R21R22R24  0  0  0  0  0  0  0  0
++        10  8  9 10  8  9  9  8 10  8 10  9 10  9 11  9  8
++         6  8  9  9  8  9  9 10  9  7 12 12 13 12  9  7  8
++         9  8  8  6  7 10 10  7 10  8  7  8  8  7  7  8  8
++         6  8  9  7  8  8  9  8  8  8  8  8  8  8  9  8  8
++         7  8  7  9  9  7  9  6  8  9  7  8  7  8  7  7  8
++         9  7 11 10  8  7 10  8  9  9 10  9  9  8  8  9  9
++         8  8  7  9  8  9 10 10  9  0  0  0  0  0  0  0  0
%c M  cc GPS ccc cccc cccc cccc cccc ccccc ccccc ccccc ccccc
%c cc cc ccc ccc cccc cccc cccc cccc ccccc ccccc ccccc ccccc
%f  0.0000000  0.000000000  0.00000000000  0.000000000000000
%f  0.0000000  0.000000000  0.00000000000  0.000000000000000
%i    0    0    0    0      0      0      0      0         0
%i    0    0    0    0      0      0      0      0         0
/* IAC                                ULTRA-RAPID PREDICTION
/* S/V CLOCKS ARE ALIGNED TO GNSS TIME                      
/* G:C1WC2W R:C1PC2P E:C1XC5X C:C2IC6I J:C1CC2S             
/* PCV:IGS14_2134 OL/AL:FES2004  NONE     YN ORB:CoN CLK:CoN
*  2021 01 14 15 45  0.00000000
PC06 -16414.048110  20834.704346 -32464.482176    -51.107016
PC08  -4595.926362  32315.152206  27015.559226   -895.491804
PC09   2390.948376  25129.636228 -33473.933983    803.838730
PC10  -9575.772936  37306.920473  16845.804004   -104.177000
PC11 -23347.260443   2032.796226  15185.637436   -885.843824
PC12 -25866.590926 -10309.158266  -1621.381524    729.494007
PC13   5635.569323  39210.679886  14965.525297     97.570505
PC14 -23343.435010  12713.692253   8434.627799    -97.703856
PC16 -14569.783052  21187.768590 -33378.693095   -659.790140
PC19  20533.123204 -18888.757498    851.816948    690.732144
PC20  22639.442473  -5908.472626 -15214.178830   -909.460780
PC21 -11250.045029 -11268.863637  22930.103302   -792.829307
PC22   6519.511429 -21268.382847  16862.637300   -844.592982
PC23   1342.912170  27388.841623  -5207.313595   -881.610361
PC24 -16724.164597  -3919.222791 -21997.677876   -741.858037
PC25 -10202.800440  17559.842722 -19156.084760   -897.171966
PC26 -13524.049880 -21000.263015 -12412.107822    963.038537
PC27  20808.202417  15277.062656  10565.209015    466.331489
PC28   2704.883655  17074.196208  21914.646915   -121.792934
PC29  16568.271643  -9505.512046 -20344.618593    338.512627
PC30  26856.471997   3863.988153  -6472.176389    431.158759
PC32  11331.142352  11191.135450 -22904.551224   -883.517189
PC33 -20479.787838  18933.000664   -735.479567   -914.676719
PC34 -26784.463747  -3475.046734   7067.657393   -763.274402
PC35  -2990.998700 -16987.929405 -21942.139886   -465.922804
PC36  10794.722369 -16993.953444  19340.786448   -777.281025
PC37  12682.502860  21933.255263  11739.476087   -860.623111
PC43 -17064.880252   9229.239680  20066.518164   -551.821809
PC44 -21168.836514 -14727.276458 -10710.448784    -13.646776
PC45  -1468.884216 -27366.209141   5180.436786    335.131014
PC46  16574.829086   3048.325977  22251.129307    452.457391
PE01  -7196.553740  28693.878876   1222.241914  -1024.666194
PE02   7118.230656 -28687.415636  -1330.811005    191.005594
PE03   9006.994757 -18133.832153  21588.603762   -387.271936
PE04  12865.287242  13489.446418 -22993.875534   -688.736596
PE05  25902.329650 -12204.202083   7498.334139   -312.945955
PE07 -27531.565853   -788.453827  10833.729694   -487.605651
PE08 -13203.019652 -13140.322913  22997.477919   6062.121733
PE09  27581.347724    469.261606 -10753.217522   5799.272924
PE11  23811.556847  11401.708591 -13371.150576   6470.894792
PE12  17668.141580  23026.487726   5782.213085   5407.018261
PE13 -23858.991193 -11669.454918  13082.649903    410.248934
PE14 -25683.879388  -6420.433306  -7000.780293  -1294.565382
PE15 -17826.454335 -22928.535788  -5707.967708    834.305230
PE18  28573.080050  -5468.429085  -8102.755200  -1414.864898
PE19 -11486.928732  17879.310537 -20608.825701    178.287471
PE21 -16384.495253  18705.688177 -16066.614143   -642.823683
PE24  16243.106355   3306.593803  24511.541030   -689.312320
PE25  16432.845181 -18530.443305  16206.216783   -524.312621
PE26 -15519.354614   7092.261239  24197.811357   2265.921815
PE27 -16397.305539  -2472.287392 -24516.545205     51.242102
PE30  -6227.316774 -22638.437500 -18018.729690   3263.350704
PE31   6773.507700  22090.247796  18515.358225   -477.353062
PE33   1289.603541  20685.477879  21143.954836   -464.857081
PE36  15858.832055  -6419.878369 -24141.800127    454.319816
PG01 -18526.704777  -8688.119123  16876.857936    780.263923
PG02  13685.367083  22602.382289   3278.546617   -565.916782
PG03 -17251.070412   3468.052976  19783.907313    -56.155130
PG04 -26441.772499  -1550.054248   2310.217800   -172.668677
PG05   7832.536227  15946.825029 -19840.779916    -30.972872
PG06   2722.985794  22282.188541  14224.115962     -4.581377
PG07 -13320.434548   7457.323090 -21408.193041     21.403089
PG08 -24060.670318  -5681.733955 -10088.897687     -6.561668
PG09 -23743.366200   7743.808481  -9134.569533   -312.670461
PG10  11306.394549 -23822.392290   1632.522701    -39.050432
PG11 -23813.975412 -10403.133686   3997.346220    -53.159130
PG12  15880.845283   1387.632748  20972.014125     13.029307
PG13  16237.103914  13066.401634 -16670.650708     85.854680
PG14 -13643.610277  22785.664387   -201.454952     85.309651
PG15  24907.046851   3441.952233  -9458.927877   -176.364982
PG16  -5169.809853 -16819.104961 -19976.029370   -265.010832
PG17  -9567.672344  13786.551431  21017.444869    380.163907
PG18  11320.451612 -10295.818208 -21708.956329    341.194774
PG19  -1221.113363  14584.864695  21881.093367    -51.982554
PG20  15264.889888 -18665.362541 -10887.715381    525.170596
PG21 -20130.833420 -14214.989644  11160.439258     86.764060
PG22 -14805.651134  -5780.328935  21474.693313   -698.292027
PG23  16357.920813 -18926.675312  -8893.928316    116.021455
PG24  20153.113923  11802.146928  12767.791299      3.677817
PG25  18003.289189 -12993.767012  14116.293339     59.662464
PG26   2010.359568 -23670.527143 -11650.695403     29.841488
PG27 -14005.874484 -12419.464041 -19135.919701    -55.896595
PG28 -12109.993071  23485.372168   4104.846631    629.786182
PG29  24661.134851  -4881.933396  -8673.411998   -275.676577
PG30  -5278.458313  18055.041189 -18622.838873   -368.827599
PG31  -4049.271549 -23188.502637  11753.995734    -93.853764
PG32   8021.784154 -14846.268380  20561.944374     14.255224
PJ01 -35941.269590  21394.376282   -553.598952   -336.521531
PJ02 -22229.114752  30142.256673 -14796.787724      0.740422
PJ03 -26986.166857  23901.902127  26914.868849     -0.103153
PR01   4687.125182 -14477.400848  20472.344784     73.491345
PR02 -15075.942908  -2419.991819  20488.303939    462.838132
PR03 -22653.754051   9385.375594   7166.076747     29.143721
PR04 -17395.934637  15693.695003 -10076.843466     69.997301
PR05  -2489.803886  13213.917287 -21675.648580     64.748881
PR07  22637.884096  -9736.714922  -6461.909390    -42.164771
PR08  17287.506957 -15766.846614  10182.337692    -56.847418
PR09   9705.381637  13698.586371  19193.988586     18.561154
PR11   5629.523961 -21164.312342  13092.570864      4.561570
PR12  -2480.976175 -24958.032407  -4546.363211    196.628539
PR13  -9409.367359 -14141.752083 -19046.094117    -49.275810
PR14 -10758.405503   5416.768280 -22475.540575     59.854983
PR15  -5858.668778  21314.584718 -12719.798255    105.905315
PR16   3463.885780  24762.949657   5367.047640    -10.192515
PR17 -20356.285203  -3826.413302  14877.201047    391.216515
PR18  -8081.229735   7322.599363  23084.579697     63.152270
PR19   7562.795606  14731.718354  19410.540452   -127.860676
PR20  21041.411507  14169.714189   2465.889513   -431.123246
PR21  19830.063915   3224.153365 -15726.388176   -180.347792
PR22   6870.090328  -8013.474549 -23223.566088    -92.446162
PR24 -21458.859402 -13676.706635  -1652.216739     27.771176
EOF
